IRIDIUM 106             
1 41917U 17003A   25145.81044342  .00000217  00000+0  70406-4 0  9996
2 41917  86.3971 250.3511 0002749  93.3750 266.7760 14.34217708437683
IRIDIUM 103             
1 41918U 17003B   25145.72798967  .00000049  00000+0  10281-4 0  9994
2 41918  86.3973 250.2865 0002416 109.7968 250.3488 14.34217823437708
IRIDIUM 109             
1 41919U 17003C   25145.38548362  .00000250  00000+0  82027-4 0  9990
2 41919  86.3974 250.4826 0002118  99.1546 260.9890 14.34220330437613
IRIDIUM 102             
1 41920U 17003D   25145.56309130  .00000025  00000+0  17560-5 0  9991
2 41920  86.3973 250.3400 0002119  93.1076 267.0363 14.34217096437724
IRIDIUM 105             
1 41921U 17003E   25145.46404547  .00000249  00000+0  81907-4 0  9992
2 41921  86.4007 218.8397 0002306 100.8136 259.3320 14.34220967439561
IRIDIUM 104             
1 41922U 17003F   25145.57576679  .00000033  00000+0  47342-5 0  9998
2 41922  86.3973 250.3716 0002002 105.2581 254.8836 14.34217623437717
IRIDIUM 114             
1 41923U 17003G   25145.72164739  .00000039  00000+0  70370-5 0  9999
2 41923  86.3973 250.2952 0002399 102.3005 257.8460 14.34217626437738
IRIDIUM 108             
1 41924U 17003H   25145.61040012  .00000073  00000+0  19153-4 0  9994
2 41924  86.4001 218.6814 0002466  91.1637 268.9842 14.34217893439553
